NORAD_CAT_ID,OBJECT_NAME,OBJECT_TYPE,EPOCH,MEAN_MOTION,ECCENTRICITY,INCLINATION,RA_OF_ASC_NODE,ARG_OF_PERICENTER,MEAN_ANOMALY,BSTAR,MEAN_MOTION_DOT,MEAN_MOTION_DDOT,TLE_LINE0,TLE_LINE1,TLE_LINE2,SEMIMAJOR_AXIS,PERIOD,APOGEE,PERIGEE,DECAYED
53840.0,STARLINK-4766,PAYLOAD,2022-10-26 22:00:00,15.73235564,0.0001785,53.2151,71.3528,39.4408,349.2419,-0.00021334,-0.000305,0.0,0 STARLINK-4766,1 53840U 22114Y   22299.91667824 -.00030500  00000-0 -21334-3 0  9993,2 53840  53.2151  71.3528 0001785  39.4408 349.2419 15.73235564  1301,6727.794,91.531,350.86,348.458,0.0
53840.0,STARLINK-4766,PAYLOAD,2022-10-27 08:00:01,15.73194596,0.0001494,53.2156,69.2889,38.0132,191.8791,0.00040057,0.0005596,0.0,0 STARLINK-4766,1 53840U 22114Y   22300.33334491  .00055960  00000-0  40057-3 0  9991,2 53840  53.2156  69.2889 0001494  38.0132 191.8791 15.73194596  6609,6727.911,91.533,350.781,348.77,0.0
53840.0,STARLINK-4766,PAYLOAD,2022-10-27 14:00:01,15.73234705,0.0001646,53.2154,68.0534,29.5612,177.0961,-0.00047844,-0.00067333,0.0,0 STARLINK-4766,1 53840U 22114Y   22300.58335648 -.00067333  00000-0 -47844-3 0  9993,2 53840  53.2154  68.0534 0001646  29.5612 177.0961 15.73234705  1302,6727.795999999999,91.531,350.769,348.55400000000014,0.0
53840.0,STARLINK-4766,PAYLOAD,2022-10-27 22:00:00,15.73212748,0.0001742,53.2149,66.4042,23.9232,271.6104,0.00044997,0.00063041,0.0,0 STARLINK-4766,1 53840U 22114Y   22300.91667824  .00063041  00000-0  44997-3 0  9990,2 53840  53.2149  66.4042 0001742  23.9232 271.6104 15.73212748  1308,6727.859,91.532,350.896,348.552,0.0
53840.0,STARLINK-4766,PAYLOAD,2022-10-28 00:00:02,15.73252495,0.0001720999999999,53.2149,65.9912,26.6699,21.1593,-5.2285e-05,-7.969e-05,0.0,0 STARLINK-4766,1 53840U 22114Y   22301.00002315 -.00007969  00000-0 -52285-4 0  9998,2 53840  53.2149  65.9912 0001721  26.6699  21.1593 15.73252495  6704,6727.746,91.53,350.76800000000014,348.45300000000015,0.0
53840.0,STARLINK-4766,PAYLOAD,2022-10-28 14:00:01,15.73202736,0.0001925,53.2153,63.105,36.1169,77.4273,0.00032956,0.00045891,0.0,0 STARLINK-4766,1 53840U 22114Y   22301.58335648  .00045891  00000-0  32956-3 0  9995,2 53840  53.2153  63.1050 0001925  36.1169  77.4273 15.73202736  1309,6727.887,91.533,351.047,348.457,0.0
53840.0,STARLINK-4766,PAYLOAD,2022-10-28 22:00:01,15.73272811,0.0001945,53.2153,61.4556,28.8784,173.6041,-0.0007482999999999,-0.00104677,0.0,0 STARLINK-4766,1 53840U 22114Y   22301.91668981 -.00104677  00000-0 -74830-3 0  9998,2 53840  53.2153  61.4556 0001945  28.8784 173.6041 15.73272811  6852,6727.688,91.529,350.861,348.244,0.0
53840.0,STARLINK-4766,PAYLOAD,2022-10-29 12:00:00,15.73183473,0.0002037,53.2155,58.5684,30.6646,237.4321,0.00049688,0.00069647,0.0,0 STARLINK-4766,1 53840U 22114Y   22302.50001157  .00069647  00000-0  49688-3 0  9998,2 53840  53.2155  58.5684 0002037  30.6646 237.4321 15.73183473  1304,6727.941999999999,91.534,351.17800000000005,348.43699999999984,0.0
53840.0,STARLINK-4766,PAYLOAD,2022-10-29 22:00:01,15.73282865,0.0002197,53.2148,56.5068,27.4473,81.8881,-0.00051808,-0.00072969,0.0,0 STARLINK-4766,1 53840U 22114Y   22302.91668981 -.00072969  00000-0 -51808-3 0  9997,2 53840  53.2148  56.5068 0002197  27.4473  81.8881 15.73282865  1306,6727.659000000002,91.528,351.00199999999984,348.046,0.0
53840.0,STARLINK-4766,PAYLOAD,2022-10-30 00:00:00,15.73277859,0.0002123,53.2149,56.0939,28.7617,192.7606,-0.00059796,-0.00083996,0.0,0 STARLINK-4766,1 53840U 22114Y   22303.00001157 -.00083996  00000-0 -59796-3 0  9990,2 53840  53.2149  56.0939 0002123  28.7617 192.7606 15.73277859  7021,6727.6730000000025,91.529,350.966,348.11,0.0
53840.0,STARLINK-4766,PAYLOAD,2022-10-30 14:00:01,15.72882408,0.0002043,53.2167,53.2092,31.0332,256.2505,0.0015594,0.00221068,0.0,0 STARLINK-4766,1 53840U 22114Y   22303.58334491  .00221068  00000-0  15594-2 0  9992,2 53840  53.2167  53.2092 0002043  31.0332 256.2505 15.72882408  1302,6728.801,91.552,352.04,349.291,0.0
53840.0,STARLINK-4766,PAYLOAD,2022-10-30 22:00:01,15.73213287,0.0002225,53.2152,51.5581,22.1782,353.9737,-0.00028763,-0.0004082,0.0,0 STARLINK-4766,1 53840U 22114Y   22303.91668981 -.00040820  00000-0 -28763-3 0  9993,2 53840  53.2152  51.5581 0002225  22.1782 353.9737 15.73213287  1308,6727.857,91.532,351.219,348.225,0.0
53840.0,STARLINK-4766,PAYLOAD,2022-10-31 14:00:01,15.73130285,0.0002353,53.2152,48.2593,18.0855,175.8362,0.00025202,0.00034793,0.0,0 STARLINK-4766,1 53840U 22114Y   22304.58334491  .00034793  00000-0  25202-3 0  9998,2 53840  53.2152  48.2593 0002353  18.0855 175.8362 15.73130285  1302,6728.094,91.537,351.542,348.376,0.0
53840.0,STARLINK-4766,PAYLOAD,2022-10-31 22:00:01,15.73208089,0.0002346,53.2147,46.6092,17.8706,264.9653,-0.00023376,-0.00033314,0.0,0 STARLINK-4766,1 53840U 22114Y   22304.91668981 -.00033314  00000-0 -23376-3 0  9999,2 53840  53.2147  46.6092 0002346  17.8706 264.9653 15.73208089  7325,6727.871999999999,91.533,351.315,348.159,0.0
53840.0,STARLINK-4766,PAYLOAD,2022-11-01 06:00:00,15.73197501,0.0002306,53.2149,44.9583,26.3483,345.3619,0.00015104,0.00020628,0.0,0 STARLINK-4766,1 53840U 22114Y   22305.25001157  .00020628  00000-0  15104-3 0  9995,2 53840  53.2149  44.9583 0002306  26.3483 345.3619 15.73197501  7373,6727.901999999999,91.533,351.319,348.216,0.0
53840.0,STARLINK-4766,PAYLOAD,2022-11-01 14:00:01,15.73160048,0.0002634,53.215,43.3108,27.6052,73.0359,0.00053057,0.00074383,0.0,0 STARLINK-4766,1 53840U 22114Y   22305.58334491  .00074383  00000-0  53057-3 0  9997,2 53840  53.2150  43.3108 0002634  27.6052  73.0359 15.73160048  7430,6728.009,91.536,351.646,348.102,0.0
53840.0,STARLINK-4766,PAYLOAD,2022-11-01 22:00:00,15.73277421,0.0002577,53.2152,41.6604,25.1317,164.4099,-0.00069035,-0.0009674,0.0,0 STARLINK-4766,1 53840U 22114Y   22305.91667824 -.00096740  00000-0 -69035-3 0  9999,2 53840  53.2152  41.6604 0002577  25.1317 164.4099 15.73277421  1307,6727.674,91.529,351.273,347.806,0.0
53840.0,STARLINK-4766,PAYLOAD,2022-11-02 06:00:00,15.73215448,0.0002463,53.2156,40.0094,23.9099,254.6133,-0.00051396,-0.00072196,0.0,0 STARLINK-4766,1 53840U 22114Y   22306.25001157 -.00072196  00000-0 -51396-3 0  9998,2 53840  53.2156  40.0094 0002463  23.9099 254.6133 15.73215448  7537,6727.851,91.532,351.37300000000016,348.059,0.0
53840.0,STARLINK-4766,PAYLOAD,2022-11-02 14:00:01,15.73116584,0.0002863999999999,53.216,38.3631,25.3543,342.0953,0.00053707,0.00075171,0.0,0 STARLINK-4766,1 53840U 22114Y   22306.58334491  .00075171  00000-0  53707-3 0  9996,2 53840  53.2160  38.3631 0002864  25.3543 342.0953 15.73116584  1306,6728.1330000000025,91.538,351.925,348.071,0.0
53840.0,STARLINK-4766,PAYLOAD,2022-11-02 22:00:00,15.73185493,0.0002804,53.215,36.7115,25.4071,70.8734,0.00034729,0.00048376,0.0,0 STARLINK-4766,1 53840U 22114Y   22306.91667824  .00048376  00000-0  34729-3 0  9992,2 53840  53.2150  36.7115 0002804  25.4071  70.8734 15.73185493  7646,6727.937,91.534,351.68800000000016,347.915,0.0
53840.0,STARLINK-4766,PAYLOAD,2022-11-03 14:00:01,15.73243968,0.0002773,53.2154,33.4133,17.9057,256.2803,-0.00026927,-0.0003832,0.0,0 STARLINK-4766,1 53840U 22114Y   22307.58334491 -.00038320  00000-0 -26927-3 0  9998,2 53840  53.2154  33.4133 0002773  17.9057 256.2803 15.73243968  1305,6727.77,91.531,351.5,347.769,0.0
53840.0,STARLINK-4766,PAYLOAD,2022-11-03 22:00:00,15.73246543,0.0002661,53.2162,31.7638,13.8752,349.2702,-0.00058295,-0.00081823,0.0,0 STARLINK-4766,1 53840U 22114Y   22307.91667824 -.00081823  00000-0 -58295-3 0  9993,2 53840  53.2162  31.7638 0002661  13.8752 349.2702 15.73246543  7790,6727.762,91.53,351.418,347.837,0.0
53840.0,STARLINK-4766,PAYLOAD,2022-11-04 14:00:01,15.73204326,0.0002356,53.2176,28.468000000000004,24.91,156.042,3.6116e-06,-1.15e-06,0.0,0 STARLINK-4766,1 53840U 22114Y   22308.58334491 -.00000115  00000-0  36116-5 0  9992,2 53840  53.2176  28.4680 0002356  24.9100 156.0420 15.73204326  7903,6727.8830000000025,91.533,351.333,348.163,0.0
53840.0,STARLINK-4766,PAYLOAD,2022-11-04 22:00:01,15.7279451,0.0003064,53.2169,26.8169,20.0426,250.1456,0.0042708999999999,0.00635277,0.0,0 STARLINK-4766,1 53840U 22114Y   22308.91668981  .00635277  00000-0  42709-2 0  9997,2 53840  53.2169  26.8169 0003064  20.0426 250.1456 15.72794510  1305,6729.051,91.557,352.978,348.855,0.0
53840.0,STARLINK-4766,PAYLOAD,2022-11-05 14:00:01,15.73151355,0.000309,53.2159,23.5159,16.6817,71.372,0.0004588999999999,0.00064152,0.0,0 STARLINK-4766,1 53840U 22114Y   22309.58335648  .00064152  00000-0  45890-3 0  9995,2 53840  53.2159  23.5159 0003090  16.6817  71.3720 15.73151355  1303,6728.034000000002,91.536,351.978,347.82,0.0
53840.0,STARLINK-4766,PAYLOAD,2022-11-05 22:00:01,15.732116199999998,0.0003018,53.2162,21.865,13.6281,163.3315,-0.0006309,-0.00088311,0.0,0 STARLINK-4766,1 53840U 22114Y   22309.91668981 -.00088311  00000-0 -63090-3 0  9998,2 53840  53.2162  21.8650 0003018  13.6281 163.3315 15.73211620  1300,6727.861999999999,91.533,351.7580000000001,347.69699999999995,0.0
53840.0,STARLINK-4766,PAYLOAD,2022-11-06 06:00:00,15.73206811,0.0002894,53.2164,20.2151,14.0196,251.7535,0.00042145,0.00058969,0.0,0 STARLINK-4766,1 53840U 22114Y   22310.25001157  .00058969  00000-0  42145-3 0  9995,2 53840  53.2164  20.2151 0002894  14.0196 251.7535 15.73206811  8165,6727.876,91.533,351.68800000000016,347.7940000000001,0.0
53840.0,STARLINK-4766,PAYLOAD,2022-11-06 14:00:01,15.73204106,0.0003224,53.2162,18.5676,12.2596,342.4773,-0.00034047,-0.00048156,0.0,0 STARLINK-4766,1 53840U 22114Y   22310.58334491 -.00048156  00000-0 -34047-3 0  9992,2 53840  53.2162  18.5676 0003224  12.2596 342.4773 15.73204106  1303,6727.8830000000025,91.533,351.918,347.579,0.0
53840.0,STARLINK-4766,PAYLOAD,2022-11-07 14:00:01,15.73136385,0.0003363,53.2159,13.6197,11.13,250.2449,0.00081225,0.0011465,0.0,0 STARLINK-4766,1 53840U 22114Y   22311.58334491  .00114650  00000-0  81225-3 0  9994,2 53840  53.2159  13.6197 0003363  11.1300 250.2449 15.73136385  8371,6728.0769999999975,91.537,352.204,347.67900000000014,0.0
